STARLINK-36749          
1 67734U 26026P   26066.25001157 -.01906940  00000+0 -34993-1 0  9993
2 67734  97.2847 120.7319 0001636  83.2426 204.8268 15.52782423  4924
STARLINK-36691          
1 67735U 26026Q   26066.25001157 -.01983790  00000+0 -28044-1 0  9992
2 67735  97.2837 120.8014 0001833  64.1410  31.9172 15.59918082  5054
STARLINK-36317          
1 67736U 26026R   26066.25001157 -.01987153  00000+0 -28373-1 0  9995
2 67736  97.2837 120.7955 0001740  63.2385  18.7708 15.59665546  4923
STARLINK-36330          
1 67737U 26026S   26066.25001157 -.01988773  00000+0 -28014-1 0  9997
2 67737  97.2837 120.8054 0001736  63.3400  40.7086 15.60021555  4921
STARLINK-36327          
1 67738U 26026T   26066.25001157 -.01989554  00000+0 -27711-1 0  9999
2 67738  97.2838 120.8111 0001917  64.8212  52.3614 15.60314367  4927
STARLINK-36329          
1 67739U 26026U   26066.25001157 -.01992142  00000+0 -26662-1 0  9991
2 67739  97.2838 120.8388 0001906  73.1159 109.8965 15.61350987  4921
STARLINK-36737          
1 67740U 26026V   26066.25001157 -.02010981  00000+0 -27873-1 0  9991
2 67740  97.2838 120.8167 0001959  67.5256  61.1062 15.60479786  4927
STARLINK-36740          
1 67741U 26026W   26066.25001157 -.01924151  00000+0 -31209-1 0  9992
2 67741  97.2840 120.7969 0001543  59.5560  16.0657 15.56174802  4923
STARLINK-36693          
1 67742U 26026X   26066.25001157 -.01932016  00000+0 -30581-1 0  9994
2 67742  97.2840 120.7931 0001484  59.3856   7.7957 15.56843898  5056
STARLINK-36717          
1 67743U 26026Y   26066.25001157 -.01985242  00000+0 -29094-1 0  9991
2 67743  97.2838 120.8146 0001810  71.0883  53.0356 15.58978699  5054
STARLINK-36692          
1 67744U 26026Z   26066.25001157 -.01981870  00000+0 -30439-1 0  9990
2 67744  97.2835 120.8005 0001867  64.0568  28.8822 15.57734361  4928
2026-027A               
1 67746U 26027A   26066.32990647  .00012706  00000+0  63312-3 0  9990
2 67746  97.4903 195.3678 0010003 202.5643 157.5152 15.17655088  3509
