CCSDS_OMM_VERS = 2.0
CREATION_DATE  = 
ORIGINATOR     = 

OBJECT_NAME    = STARLINK-36749
OBJECT_ID      = 2026-026P
CENTER_NAME    = EARTH
REF_FRAME      = TEME
TIME_SYSTEM    = UTC
MEAN_ELEMENT_THEORY = SGP/SGP4

EPOCH          = 2026-03-07T06:00:00.999648
MEAN_MOTION    = 15.52782423
ECCENTRICITY   = .00016368
INCLINATION    = 97.2847
RA_OF_ASC_NODE = 120.7319
ARG_OF_PERICENTER = 83.2426
MEAN_ANOMALY   = 204.8268

EPHEMERIS_TYPE = 0
CLASSIFICATION_TYPE = U
NORAD_CAT_ID   = 67734
ELEMENT_SET_NO = 999
REV_AT_EPOCH   = 492
BSTAR          = -.34992901E-1
MEAN_MOTION_DOT = -.190694E-1
MEAN_MOTION_DDOT = 0

CCSDS_OMM_VERS = 2.0
CREATION_DATE  = 
ORIGINATOR     = 

OBJECT_NAME    = STARLINK-36691
OBJECT_ID      = 2026-026Q
CENTER_NAME    = EARTH
REF_FRAME      = TEME
TIME_SYSTEM    = UTC
MEAN_ELEMENT_THEORY = SGP/SGP4

EPOCH          = 2026-03-07T06:00:00.999648
MEAN_MOTION    = 15.59918082
ECCENTRICITY   = .00018333
INCLINATION    = 97.2837
RA_OF_ASC_NODE = 120.8014
ARG_OF_PERICENTER = 64.1410
MEAN_ANOMALY   = 31.9172

EPHEMERIS_TYPE = 0
CLASSIFICATION_TYPE = U
NORAD_CAT_ID   = 67735
ELEMENT_SET_NO = 999
REV_AT_EPOCH   = 505
BSTAR          = -.28044464E-1
MEAN_MOTION_DOT = -.198379E-1
MEAN_MOTION_DDOT = 0

CCSDS_OMM_VERS = 2.0
CREATION_DATE  = 
ORIGINATOR     = 

OBJECT_NAME    = STARLINK-36317
OBJECT_ID      = 2026-026R
CENTER_NAME    = EARTH
REF_FRAME      = TEME
TIME_SYSTEM    = UTC
MEAN_ELEMENT_THEORY = SGP/SGP4

EPOCH          = 2026-03-07T06:00:00.999648
MEAN_MOTION    = 15.59665546
ECCENTRICITY   = .00017405
INCLINATION    = 97.2837
RA_OF_ASC_NODE = 120.7955
ARG_OF_PERICENTER = 63.2385
MEAN_ANOMALY   = 18.7708

EPHEMERIS_TYPE = 0
CLASSIFICATION_TYPE = U
NORAD_CAT_ID   = 67736
ELEMENT_SET_NO = 999
REV_AT_EPOCH   = 492
BSTAR          = -.28372955E-1
MEAN_MOTION_DOT = -.1987153E-1
MEAN_MOTION_DDOT = 0

CCSDS_OMM_VERS = 2.0
CREATION_DATE  = 
ORIGINATOR     = 

OBJECT_NAME    = STARLINK-36330
OBJECT_ID      = 2026-026S
CENTER_NAME    = EARTH
REF_FRAME      = TEME
TIME_SYSTEM    = UTC
MEAN_ELEMENT_THEORY = SGP/SGP4

EPOCH          = 2026-03-07T06:00:00.999648
MEAN_MOTION    = 15.60021555
ECCENTRICITY   = .00017364
INCLINATION    = 97.2837
RA_OF_ASC_NODE = 120.8054
ARG_OF_PERICENTER = 63.3400
MEAN_ANOMALY   = 40.7086

EPHEMERIS_TYPE = 0
CLASSIFICATION_TYPE = U
NORAD_CAT_ID   = 67737
ELEMENT_SET_NO = 999
REV_AT_EPOCH   = 492
BSTAR          = -.28014374E-1
MEAN_MOTION_DOT = -.1988773E-1
MEAN_MOTION_DDOT = 0

CCSDS_OMM_VERS = 2.0
CREATION_DATE  = 
ORIGINATOR     = 

OBJECT_NAME    = STARLINK-36327
OBJECT_ID      = 2026-026T
CENTER_NAME    = EARTH
REF_FRAME      = TEME
TIME_SYSTEM    = UTC
MEAN_ELEMENT_THEORY = SGP/SGP4

EPOCH          = 2026-03-07T06:00:00.999648
MEAN_MOTION    = 15.60314367
ECCENTRICITY   = .0001917
INCLINATION    = 97.2838
RA_OF_ASC_NODE = 120.8111
ARG_OF_PERICENTER = 64.8212
MEAN_ANOMALY   = 52.3614

EPHEMERIS_TYPE = 0
CLASSIFICATION_TYPE = U
NORAD_CAT_ID   = 67738
ELEMENT_SET_NO = 999
REV_AT_EPOCH   = 492
BSTAR          = -.27711022E-1
MEAN_MOTION_DOT = -.1989554E-1
MEAN_MOTION_DDOT = 0

CCSDS_OMM_VERS = 2.0
CREATION_DATE  = 
ORIGINATOR     = 

OBJECT_NAME    = STARLINK-36329
OBJECT_ID      = 2026-026U
CENTER_NAME    = EARTH
REF_FRAME      = TEME
TIME_SYSTEM    = UTC
MEAN_ELEMENT_THEORY = SGP/SGP4

EPOCH          = 2026-03-07T06:00:00.999648
MEAN_MOTION    = 15.61350987
ECCENTRICITY   = .00019061
INCLINATION    = 97.2838
RA_OF_ASC_NODE = 120.8388
ARG_OF_PERICENTER = 73.1159
MEAN_ANOMALY   = 109.8965

EPHEMERIS_TYPE = 0
CLASSIFICATION_TYPE = U
NORAD_CAT_ID   = 67739
ELEMENT_SET_NO = 999
REV_AT_EPOCH   = 492
BSTAR          = -.26662428E-1
MEAN_MOTION_DOT = -.1992142E-1
MEAN_MOTION_DDOT = 0

CCSDS_OMM_VERS = 2.0
CREATION_DATE  = 
ORIGINATOR     = 

OBJECT_NAME    = STARLINK-36737
OBJECT_ID      = 2026-026V
CENTER_NAME    = EARTH
REF_FRAME      = TEME
TIME_SYSTEM    = UTC
MEAN_ELEMENT_THEORY = SGP/SGP4

EPOCH          = 2026-03-07T06:00:00.999648
MEAN_MOTION    = 15.60479786
ECCENTRICITY   = .00019594
INCLINATION    = 97.2838
RA_OF_ASC_NODE = 120.8167
ARG_OF_PERICENTER = 67.5256
MEAN_ANOMALY   = 61.1062

EPHEMERIS_TYPE = 0
CLASSIFICATION_TYPE = U
NORAD_CAT_ID   = 67740
ELEMENT_SET_NO = 999
REV_AT_EPOCH   = 492
BSTAR          = -.2787256E-1
MEAN_MOTION_DOT = -.2010981E-1
MEAN_MOTION_DDOT = 0

CCSDS_OMM_VERS = 2.0
CREATION_DATE  = 
ORIGINATOR     = 

OBJECT_NAME    = STARLINK-36740
OBJECT_ID      = 2026-026W
CENTER_NAME    = EARTH
REF_FRAME      = TEME
TIME_SYSTEM    = UTC
MEAN_ELEMENT_THEORY = SGP/SGP4

EPOCH          = 2026-03-07T06:00:00.999648
MEAN_MOTION    = 15.56174802
ECCENTRICITY   = .00015437
INCLINATION    = 97.2840
RA_OF_ASC_NODE = 120.7969
ARG_OF_PERICENTER = 59.5560
MEAN_ANOMALY   = 16.0657

EPHEMERIS_TYPE = 0
CLASSIFICATION_TYPE = U
NORAD_CAT_ID   = 67741
ELEMENT_SET_NO = 999
REV_AT_EPOCH   = 492
BSTAR          = -.31208545E-1
MEAN_MOTION_DOT = -.1924151E-1
MEAN_MOTION_DDOT = 0

CCSDS_OMM_VERS = 2.0
CREATION_DATE  = 
ORIGINATOR     = 

OBJECT_NAME    = STARLINK-36693
OBJECT_ID      = 2026-026X
CENTER_NAME    = EARTH
REF_FRAME      = TEME
TIME_SYSTEM    = UTC
MEAN_ELEMENT_THEORY = SGP/SGP4

EPOCH          = 2026-03-07T06:00:00.999648
MEAN_MOTION    = 15.56843898
ECCENTRICITY   = .00014843
INCLINATION    = 97.2840
RA_OF_ASC_NODE = 120.7931
ARG_OF_PERICENTER = 59.3856
MEAN_ANOMALY   = 7.7957

EPHEMERIS_TYPE = 0
CLASSIFICATION_TYPE = U
NORAD_CAT_ID   = 67742
ELEMENT_SET_NO = 999
REV_AT_EPOCH   = 505
BSTAR          = -.30580597E-1
MEAN_MOTION_DOT = -.1932016E-1
MEAN_MOTION_DDOT = 0

CCSDS_OMM_VERS = 2.0
CREATION_DATE  = 
ORIGINATOR     = 

OBJECT_NAME    = STARLINK-36717
OBJECT_ID      = 2026-026Y
CENTER_NAME    = EARTH
REF_FRAME      = TEME
TIME_SYSTEM    = UTC
MEAN_ELEMENT_THEORY = SGP/SGP4

EPOCH          = 2026-03-07T06:00:00.999648
MEAN_MOTION    = 15.58978699
ECCENTRICITY   = .00018103
INCLINATION    = 97.2838
RA_OF_ASC_NODE = 120.8146
ARG_OF_PERICENTER = 71.0883
MEAN_ANOMALY   = 53.0356

EPHEMERIS_TYPE = 0
CLASSIFICATION_TYPE = U
NORAD_CAT_ID   = 67743
ELEMENT_SET_NO = 999
REV_AT_EPOCH   = 505
BSTAR          = -.29094052E-1
MEAN_MOTION_DOT = -.1985242E-1
MEAN_MOTION_DDOT = 0

CCSDS_OMM_VERS = 2.0
CREATION_DATE  = 
ORIGINATOR     = 

OBJECT_NAME    = STARLINK-36692
OBJECT_ID      = 2026-026Z
CENTER_NAME    = EARTH
REF_FRAME      = TEME
TIME_SYSTEM    = UTC
MEAN_ELEMENT_THEORY = SGP/SGP4

EPOCH          = 2026-03-07T06:00:00.999648
MEAN_MOTION    = 15.57734361
ECCENTRICITY   = .00018675
INCLINATION    = 97.2835
RA_OF_ASC_NODE = 120.8005
ARG_OF_PERICENTER = 64.0568
MEAN_ANOMALY   = 28.8822

EPHEMERIS_TYPE = 0
CLASSIFICATION_TYPE = U
NORAD_CAT_ID   = 67744
ELEMENT_SET_NO = 999
REV_AT_EPOCH   = 492
BSTAR          = -.3043885E-1
MEAN_MOTION_DOT = -.198187E-1
MEAN_MOTION_DDOT = 0

CCSDS_OMM_VERS = 2.0
CREATION_DATE  = 
ORIGINATOR     = 

OBJECT_NAME    = 2026-027A
OBJECT_ID      = 2026-027A
CENTER_NAME    = EARTH
REF_FRAME      = TEME
TIME_SYSTEM    = UTC
MEAN_ELEMENT_THEORY = SGP/SGP4

EPOCH          = 2026-03-07T07:55:03.919008
MEAN_MOTION    = 15.17655088
ECCENTRICITY   = .00100034
INCLINATION    = 97.4903
RA_OF_ASC_NODE = 195.3678
ARG_OF_PERICENTER = 202.5643
MEAN_ANOMALY   = 157.5152

EPHEMERIS_TYPE = 0
CLASSIFICATION_TYPE = U
NORAD_CAT_ID   = 67746
ELEMENT_SET_NO = 999
REV_AT_EPOCH   = 350
BSTAR          = .63311989E-3
MEAN_MOTION_DOT = .12706E-3
MEAN_MOTION_DDOT = 0

